     2              NAVIGATION DATA                         RINEX VERSION / TYPE
CCRINEXN V1.6.0 UX  CDDIS               17-JUL-16 15:33     PGM / RUN BY / DATE 
IGS BROADCAST EPHEMERIS FILE                                COMMENT             
    0.7451D-08  0.2235D-07 -0.5960D-07 -0.1192D-06          ION ALPHA           
    0.9011D+05  0.1147D+06 -0.6554D+05 -0.5243D+06          ION BETA            
    0.000000000000D+00 0.177635683940D-14    61440     1906 DELTA-UTC: A0,A1,T,W
    17                                                      LEAP SECONDS        
                                                            END OF HEADER       
28 16  7 16  2  0  0.0 0.537483487278D-03 0.272848410532D-11 0.000000000000D+00
    0.140000000000D+02-0.173125000000D+02 0.397516558160D-08 0.146793907013D+01
   -0.124983489513D-05 0.197488507256D-01 0.284053385258D-05 0.515362719917D+04
    0.525600000000D+06-0.106170773506D-06 0.122102080492D+01-0.519677996635D-06
    0.989313877054D+00 0.339500000000D+03-0.161431043593D+01-0.811105214359D-08
   -0.428589281035D-11 0.000000000000D+00 0.190500000000D+04 0.000000000000D+00
    0.200000000000D+01 0.000000000000D+00-0.111758708954D-07 0.140000000000D+02
    0.518400000000D+06 0.400000000000D+01 0.000000000000D+00 0.000000000000D+00
29 16  7 16  2  0  0.0 0.655401963741D-03-0.568434188608D-12 0.000000000000D+00
    0.580000000000D+02-0.106375000000D+03 0.385123184784D-08 0.277120355390D+01
   -0.541470944881D-05 0.732471118681D-03 0.843964517117D-05 0.515378911018D+04
    0.525600000000D+06 0.558793544769D-08 0.224730222539D+01 0.167638063431D-07
    0.977914226899D+00 0.223000000000D+03 0.531091927825D-02-0.777746681985D-08
    0.400016662300D-10 0.100000000000D+01 0.190500000000D+04 0.000000000000D+00
    0.200000000000D+01 0.000000000000D+00-0.102445483208D-07 0.580000000000D+02
    0.518400000000D+06 0.400000000000D+01 0.000000000000D+00 0.000000000000D+00
30 16  7 16  2  0  0.0 0.139901414514D-03 0.238742359215D-11 0.000000000000D+00
    0.106000000000D+03 0.100125000000D+03 0.453983195937D-08-0.206815813282D+01
    0.515021383762D-05 0.228384195361D-02 0.669993460178D-05 0.515358639908D+04
    0.525600000000D+06 0.000000000000D+00 0.163694492681D+00 0.633299350738D-07
    0.951974140950D+00 0.246437500000D+03 0.308664725870D+01-0.809926593836D-08
    0.921466954226D-10 0.000000000000D+00 0.190500000000D+04 0.000000000000D+00
    0.200000000000D+01 0.000000000000D+00 0.325962901115D-08 0.106000000000D+03
    0.518400000000D+06 0.400000000000D+01 0.000000000000D+00 0.000000000000D+00
31 16  7 16  2  0  0.0 0.258665997535D-03-0.193267624127D-11 0.000000000000D+00
    0.490000000000D+02 0.103718750000D+03 0.414374403214D-08-0.231891574022D+01
    0.533275306225D-05 0.816905603278D-02 0.753439962864D-05 0.515378536797D+04
    0.525600000000D+06-0.169500708580D-06 0.129842190894D+00 0.260770320892D-07
    0.971007607781D+00 0.241468750000D+03-0.393720455992D+00-0.789318592573D-08
    0.592881838765D-10 0.100000000000D+01 0.190500000000D+04 0.000000000000D+00
    0.200000000000D+01 0.000000000000D+00-0.135041773319D-07 0.490000000000D+02
    0.518400000000D+06 0.400000000000D+01 0.000000000000D+00 0.000000000000D+00
32 16  7 16  2  0  0.0-0.496674329042D-04-0.106865627458D-10 0.000000000000D+00
    0.810000000000D+02 0.659375000000D+01 0.452697435094D-08 0.964594012538D+00
    0.458210706711D-06 0.588846509345D-03 0.101197510958D-04 0.515362885094D+04
    0.525600000000D+06-0.186264514923D-07-0.956008209236D+00 0.111758708954D-07
    0.959169142182D+00 0.184437500000D+03-0.227839017523D+01-0.792604470945D-08
   -0.541808264920D-09 0.100000000000D+01 0.190500000000D+04 0.000000000000D+00
    0.200000000000D+01 0.000000000000D+00 0.465661287308D-09 0.810000000000D+02
    0.518400000000D+06 0.000000000000D+00 0.000000000000D+00 0.000000000000D+00
12 16  7 16  3 59 44.0 0.385385472327D-03 0.909494701773D-12 0.000000000000D+00
    0.500000000000D+01-0.168125000000D+02 0.391730602866D-08-0.171206554343D+01
   -0.793486833572D-06 0.610961241182D-02 0.241212546825D-05 0.515369657707D+04
    0.532784000000D+06 0.651925802231D-07 0.119727271739D+01-0.987201929092D-07
    0.990100003879D+00 0.349218750000D+03 0.781172356290D+00-0.798961851397D-08
   -0.105361531588D-09 0.100000000000D+01 0.190500000000D+04 0.000000000000D+00
    0.200000000000D+01 0.000000000000D+00-0.125728547573D-07 0.500000000000D+01
    0.530106000000D+06 0.400000000000D+01 0.000000000000D+00 0.000000000000D+00
14 16  7 16  3 59 44.0-0.248071737588D-04-0.204636307899D-11 0.000000000000D+00
    0.600000000000D+01 0.150000000000D+02 0.443661329896D-08 0.138675655547D+01
    0.732019543648D-06 0.887304195203D-02 0.107437372208D-04 0.515404063415D+04
    0.532784000000D+06-0.229105353355D-06-0.873595095211D+00-0.689178705216D-07
    0.963486194416D+00 0.177531250000D+03-0.195926708956D+01-0.793175924940D-08
   -0.514664311169D-09 0.100000000000D+01 0.190500000000D+04 0.000000000000D+00
    0.200000000000D+01 0.000000000000D+00-0.931322574616D-08 0.600000000000D+01
    0.529680000000D+06 0.000000000000D+00 0.000000000000D+00 0.000000000000D+00
 1 16  7 16  4  0  0.0 0.270628370345D-04 0.125055521494D-11 0.000000000000D+00
    0.370000000000D+02-0.106562500000D+02 0.441304096373D-08-0.401486368319D+00
   -0.396743416786D-06 0.568993820343D-02 0.897422432900D-05 0.515364138794D+04
    0.532800000000D+06 0.106170773506D-06-0.303838630517D+01 0.167638063431D-07
    0.965182885341D+00 0.210031250000D+03 0.495418477357D+00-0.791997275580D-08
    0.532165023952D-09 0.000000000000D+00 0.190500000000D+04 0.000000000000D+00
    0.200000000000D+01 0.000000000000D+00 0.512227416039D-08 0.370000000000D+02
    0.525600000000D+06 0.400000000000D+01 0.000000000000D+00 0.000000000000D+00
 2 16  7 16  4  0  0.0 0.575991813093D-03-0.397903932026D-11 0.000000000000D+00
    0.320000000000D+02-0.546875000000D+01 0.500092259421D-08-0.764850291085D-02
   -0.331550836563D-06 0.158190350048D-01 0.930018723011D-05 0.515359697723D+04
    0.532800000000D+06-0.121071934700D-06-0.308496150894D+01 0.275671482086D-06
    0.943975921621D+00 0.198218750000D+03-0.210202597519D+01-0.839284959587D-08
    0.542879755978D-09 0.000000000000D+00 0.190500000000D+04 0.000000000000D+00
    0.200000000000D+01 0.000000000000D+00-0.200234353542D-07 0.320000000000D+02
    0.531330000000D+06 0.400000000000D+01 0.000000000000D+00 0.000000000000D+00
 3 16  7 16  4  0  0.0-0.733421184123D-04-0.306954461848D-11 0.000000000000D+00
    0.220000000000D+02-0.800000000000D+01 0.510592696807D-08 0.239954096354D+00
   -0.407919287682D-06 0.178174464963D-03 0.547058880329D-05 0.515365418816D+04
    0.532800000000D+06 0.242143869400D-07-0.199705475070D+01 0.409781932831D-07
    0.959040437575D+00 0.274656250000D+03-0.128869267278D+01-0.824355766298D-08
    0.796461747257D-10 0.000000000000D+00 0.190500000000D+04 0.000000000000D+00
    0.200000000000D+01 0.000000000000D+00 0.186264514923D-08 0.220000000000D+02
    0.525600000000D+06 0.400000000000D+01 0.000000000000D+00 0.000000000000D+00
 4 16  7 16  4  0  0.0-0.259101856500D-03-0.341060513165D-12 0.000000000000D+00
    0.670000000000D+02-0.318750000000D+01 0.532022160859D-08 0.279743172060D+01
   -0.240281224251D-06 0.848909630440D-02 0.174343585968D-05 0.515365947151D+04
    0.532800000000D+06 0.447034835815D-07 0.116761030368D+01-0.372529029846D-07
    0.983077855196D+00 0.357562500000D+03 0.903341145407D+00-0.805033532878D-08
   -0.507163982558D-10 0.100000000000D+01 0.190500000000D+04 0.000000000000D+00
    0.280000000000D+01 0.630000000000D+02-0.195577740669D-07 0.670000000000D+02
    0.525600000000D+06 0.400000000000D+01 0.000000000000D+00 0.000000000000D+00
 5 16  7 16  4  0  0.0-0.105136539787D-03 0.272848410532D-11 0.000000000000D+00
    0.700000000000D+02-0.828125000000D+01 0.535415159333D-08 0.248144878859D+01
   -0.379979610443D-06 0.459245126694D-02 0.582076609135D-05 0.515354846954D+04
    0.532800000000D+06-0.124797224999D-06-0.200962821121D+01-0.502914190292D-07
    0.946103996366D+00 0.260843750000D+03 0.460669036669D+00-0.826534428477D-08
    0.621454457501D-10 0.000000000000D+00 0.190500000000D+04 0.000000000000D+00
    0.200000000000D+01 0.000000000000D+00-0.107102096081D-07 0.700000000000D+02
    0.532170000000D+06 0.400000000000D+01 0.000000000000D+00 0.000000000000D+00
 6 16  7 16  4  0  0.0 0.219197478145D-03 0.522959453519D-11 0.000000000000D+00
    0.150000000000D+02-0.656250000000D+01 0.441018370185D-08-0.154049204608D+00
   -0.651925802231D-06 0.335673335940D-03 0.905990600586D-05 0.515372905731D+04
    0.532800000000D+06-0.298023223877D-07-0.304680419912D+01 0.000000000000D+00
    0.965005815200D+00 0.205500000000D+03-0.134041236695D+01-0.788318550918D-08
    0.530736393015D-09 0.000000000000D+00 0.190500000000D+04 0.000000000000D+00
    0.200000000000D+01 0.000000000000D+00 0.419095158577D-08 0.150000000000D+02
    0.525600000000D+06 0.400000000000D+01 0.000000000000D+00 0.000000000000D+00
 7 16  7 16  4  0  0.0 0.441691372544D-03-0.261479726760D-11 0.000000000000D+00
    0.106000000000D+03 0.934687500000D+02 0.420303221602D-08-0.111237681633D+01
    0.477768480778D-05 0.975233991630D-02 0.722147524357D-05 0.515364235878D+04
    0.532800000000D+06 0.219792127609D-06 0.120221315997D+00-0.763684511185D-07
    0.966198845374D+00 0.244531250000D+03-0.266080590250D+01-0.791068665471D-08
   -0.214294640518D-10 0.000000000000D+00 0.190500000000D+04 0.000000000000D+00
    0.200000000000D+01 0.000000000000D+00-0.111758708954D-07 0.106000000000D+03
    0.526710000000D+06 0.400000000000D+01 0.000000000000D+00 0.000000000000D+00
